{
  "type": "FeatureCollection",
  "features": [
    {
      "type": "Feature",
      "properties": {
        "name": "Taiwan"
      },
      "geometry": {
        "type": "Polygon",
        "coordinates": [
          [
            [
              120.0,
              25.3
            ],
            [
              120.2,
              25.5
            ],
            [
              120.5,
              25.6
            ],
            [
              120.8,
              25.5
            ],
            [
              121.2,
              25.3
            ],
            [
              121.5,
              25.0
            ],
            [
              121.8,
              24.8
            ],
            [
              121.9,
              24.5
            ],
            [
              122.0,
              24.2
            ],
            [
              122.0,
              23.8
            ],
            [
              121.8,
              23.5
            ],
            [
              121.6,
              23.2
            ],
            [
              121.4,
              23.0
            ],
            [
              121.2,
              22.8
            ],
            [
              121.0,
              22.5
            ],
            [
              120.8,
              22.3
            ],
            [
              120.6,
              22.2
            ],
            [
              120.4,
              22.3
            ],
            [
              120.2,
              22.5
            ],
            [
              120.0,
              22.8
            ],
            [
              119.8,
              23.2
            ],
            [
              119.6,
              23.6
            ],
            [
              119.5,
              24.0
            ],
            [
              119.6,
              24.4
            ],
            [
              119.8,
              25.0
            ],
            [
              120.0,
              25.3
            ]
          ]
        ]
      }
    }
  ]
}